{"type": "FeatureCollection", "features": [ {"type": "Feature", "properties": {"norad_id": 66609, "name": "STARLINK-36034", "group": "last-30-days", "lat": 35.48234295770874, "lon": -67.46299924622834, "alt_km": 411.22818618326346, "timestamp": "2025-12-17T21:39:44.490930+00:00", "meta": {"OBJECT_NAME": "STARLINK-36034", "OBJECT_ID": "2025-270X", "EPOCH": "2025-12-17T13:24:39.811104", "MEAN_MOTION": 15.50625589, "ECCENTRICITY": 0.00032636, "INCLINATION": 42.9988, "RA_OF_ASC_NODE": 164.4552, "ARG_OF_PERICENTER": 289.9878, "MEAN_ANOMALY": 70.0631, "EPHEMERIS_TYPE": 0, "CLASSIFICATION_TYPE": "U", "NORAD_CAT_ID": 66609, "ELEMENT_SET_NO": 999, "REV_AT_EPOCH": 493, "BSTAR": 0.0016487715, "MEAN_MOTION_DOT": 0.00097774, "MEAN_MOTION_DDOT": 0}, "tle": {"line1": "1 66609U 25270X   25351.55879411  .00097774  00000+0  16488-2 0  9991", "line2": "2 66609  42.9988 164.4552 0003263 289.9878  70.0631 15.50625589  4930"}}, "geometry": {"type": "Point", "coordinates": [-67.46299924622834, 35.48234295770874]}}, {"type": "Feature", "properties": {"norad_id": 66610, "name": "STARLINK-35680", "group": "last-30-days", "lat": 34.61489184159653, "lon": -65.35702837384099, "alt_km": 410.2689162535389, "timestamp": "2025-12-17T21:39:44.490939+00:00", "meta": {"OBJECT_NAME": "STARLINK-35680", "OBJECT_ID": "2025-270Y", "EPOCH": "2025-12-17T13:24:10.088640", "MEAN_MOTION": 15.5062507, "ECCENTRICITY": 0.00019132, "INCLINATION": 42.9987, "RA_OF_ASC_NODE": 164.4523, "ARG_OF_PERICENTER": 268.485, "MEAN_ANOMALY": 91.5791, "EPHEMERIS_TYPE": 0, "CLASSIFICATION_TYPE": "U", "NORAD_CAT_ID": 66610, "ELEMENT_SET_NO": 999, "REV_AT_EPOCH": 520, "BSTAR": 0.0017135723, "MEAN_MOTION_DOT": 0.00101669, "MEAN_MOTION_DDOT": 0}, "tle": {"line1": "1 66610U 25270Y   25351.55845010  .00101669  00000+0  17136-2 0  9991", "line2": "2 66610  42.9987 164.4523 0001913 268.4850  91.5791 15.50625070  5202"}}, "geometry": {"type": "Point", "coordinates": [-65.35702837384099, 34.61489184159653]}}, {"type": "Feature", "properties": {"norad_id": 66611, "name": "STARLINK-35583", "group": "last-30-days", "lat": 33.71371595264008, "lon": -63.29836758922836, "alt_km": 410.4667547828667, "timestamp": "2025-12-17T21:39:44.490950+00:00", "meta": {"OBJECT_NAME": "STARLINK-35583", "OBJECT_ID": "2025-270Z", "EPOCH": "2025-12-17T13:23:40.073280", "MEAN_MOTION": 15.50623463, "ECCENTRICITY": 0.00019449, "INCLINATION": 42.9993, "RA_OF_ASC_NODE": 164.4493, "ARG_OF_PERICENTER": 268.986, "MEAN_ANOMALY": 91.0778, "EPHEMERIS_TYPE": 0, "CLASSIFICATION_TYPE": "U", "NORAD_CAT_ID": 66611, "ELEMENT_SET_NO": 999, "REV_AT_EPOCH": 520, "BSTAR": 0.0013044764, "MEAN_MOTION_DOT": 0.00077067, "MEAN_MOTION_DDOT": 0}, "tle": {"line1": "1 66611U 25270Z   25351.55810270  .00077067  00000+0  13045-2 0  9991", "line2": "2 66611  42.9993 164.4493 0001944 268.9860  91.0778 15.50623463  5200"}}, "geometry": {"type": "Point", "coordinates": [-63.29836758922836, 33.71371595264008]}}, {"type": "Feature", "properties": {"norad_id": 66612, "name": "STARLINK-36039", "group": "last-30-days", "lat": -34.26973637937131, "lon": 115.88094336517608, "alt_km": 445.7702751447987, "timestamp": "2025-12-17T21:39:44.490960+00:00", "meta": {"OBJECT_NAME": "STARLINK-36039", "OBJECT_ID": "2025-270AA", "EPOCH": "2025-12-17T14:07:25.893696", "MEAN_MOTION": 15.40714563, "ECCENTRICITY": 0.00017818, "INCLINATION": 42.9987, "RA_OF_ASC_NODE": 164.6822, "ARG_OF_PERICENTER": 277.3864, "MEAN_ANOMALY": 82.679, "EPHEMERIS_TYPE": 0, "CLASSIFICATION_TYPE": "U", "NORAD_CAT_ID": 66612, "ELEMENT_SET_NO": 999, "REV_AT_EPOCH": 509, "BSTAR": 0.0011727687, "MEAN_MOTION_DOT": 0.00049026, "MEAN_MOTION_DDOT": 0}, "tle": {"line1": "1 66612U 25270AA  25351.58849414  .00049026  00000+0  11728-2 0  9997", "line2": "2 66612  42.9987 164.6822 0001781 277.3864  82.6790 15.40714563  5097"}}, "geometry": {"type": "Point", "coordinates": [115.88094336517608, -34.26973637937131]}}, {"type": "Feature", "properties": {"norad_id": 66613, "name": "STARLINK-36037", "group": "last-30-days", "lat": -20.480008215721355, "lon": 139.1836842584792, "alt_km": 445.6342602260502, "timestamp": "2025-12-17T21:39:44.490970+00:00", "meta": {"OBJECT_NAME": "STARLINK-36037", "OBJECT_ID": "2025-270AB", "EPOCH": "2025-12-17T14:00:03.000384", "MEAN_MOTION": 15.40693656, "ECCENTRICITY": 0.00013586, "INCLINATION": 42.9988, "RA_OF_ASC_NODE": 164.653, "ARG_OF_PERICENTER": 263.0968, "MEAN_ANOMALY": 93.3695, "EPHEMERIS_TYPE": 0, "CLASSIFICATION_TYPE": "U", "NORAD_CAT_ID": 66613, "ELEMENT_SET_NO": 999, "REV_AT_EPOCH": 517, "BSTAR": 0.00020704214, "MEAN_MOTION_DOT": 8.353e-05, "MEAN_MOTION_DDOT": 0}, "tle": {"line1": "1 66613U 25270AB  25351.58336806  .00008353  00000+0  20704-3 0  9997", "line2": "2 66613  42.9988 164.6530 0001358 263.0968  93.3695 15.40693656  5173"}}, "geometry": {"type": "Point", "coordinates": [139.1836842584792, -20.480008215721355]}}, {"type": "Feature", "properties": {"norad_id": 66614, "name": "STARLINK-36040", "group": "last-30-days", "lat": 42.342647331225386, "lon": -119.51007222253959, "alt_km": 438.6118119165267, "timestamp": "2025-12-17T21:39:44.490979+00:00", "meta": {"OBJECT_NAME": "STARLINK-36040", "OBJECT_ID": "2025-270AC", "EPOCH": "2025-12-17T14:00:03.000384", "MEAN_MOTION": 15.4064947, "ECCENTRICITY": 0.00018361, "INCLINATION": 42.9992, "RA_OF_ASC_NODE": 164.3811, "ARG_OF_PERICENTER": 276.0005, "MEAN_ANOMALY": 192.4557, "EPHEMERIS_TYPE": 0, "CLASSIFICATION_TYPE": "U", "NORAD_CAT_ID": 66614, "ELEMENT_SET_NO": 999, "REV_AT_EPOCH": 502, "BSTAR": 0.00063925008, "MEAN_MOTION_DOT": 0.00026448, "MEAN_MOTION_DDOT": 0}, "tle": {"line1": "1 66614U 25270AC  25351.58336806  .00026448  00000+0  63925-3 0  9995", "line2": "2 66614  42.9992 164.3811 0001836 276.0005 192.4557 15.40649470  5022"}}, "geometry": {"type": "Point", "coordinates": [-119.51007222253959, 42.342647331225386]}}, {"type": "Feature", "properties": {"norad_id": 66615, "name": "STARLINK-35988", "group": "last-30-days", "lat": 4.321623958551544, "lon": 167.37452007894373, "alt_km": 443.68147872658847, "timestamp": "2025-12-17T21:39:44.490988+00:00", "meta": {"OBJECT_NAME": "STARLINK-35988", "OBJECT_ID": "2025-270AD", "EPOCH": "2025-12-17T14:00:03.000384", "MEAN_MOTION": 15.40705346, "ECCENTRICITY": 0.00014832, "INCLINATION": 42.9986, "RA_OF_ASC_NODE": 164.5628, "ARG_OF_PERICENTER": 246.2412, "MEAN_ANOMALY": 147.4448, "EPHEMERIS_TYPE": 0, "CLASSIFICATION_TYPE": "U", "NORAD_CAT_ID": 66615, "ELEMENT_SET_NO": 999, "REV_AT_EPOCH": 502, "BSTAR": 0.00016073502, "MEAN_MOTION_DOT": 6.418e-05, "MEAN_MOTION_DDOT": 0}, "tle": {"line1": "1 66615U 25270AD  25351.58336806  .00006418  00000+0  16074-3 0  9994", "line2": "2 66615  42.9986 164.5628 0001483 246.2412 147.4448 15.40705346  5027"}}, "geometry": {"type": "Point", "coordinates": [167.37452007894373, 4.321623958551544]}}, {"type": "Feature", "properties": {"norad_id": 66616, "name": "STARLINK-35391", "group": "last-30-days", "lat": 28.409182694008557, "lon": -53.08175871193014, "alt_km": 410.7431106032491, "timestamp": "2025-12-17T21:39:44.490997+00:00", "meta": {"OBJECT_NAME": "STARLINK-35391", "OBJECT_ID": "2025-270AE", "EPOCH": "2025-12-15T22:42:15.874848", "MEAN_MOTION": 15.50586233, "ECCENTRICITY": 0.00017552, "INCLINATION": 42.9989, "RA_OF_ASC_NODE": 173.8523, "ARG_OF_PERICENTER": 256.7172, "MEAN_ANOMALY": 103.3493, "EPHEMERIS_TYPE": 0, "CLASSIFICATION_TYPE": "U", "NORAD_CAT_ID": 66616, "ELEMENT_SET_NO": 999, "REV_AT_EPOCH": 495, "BSTAR": 0.00084717563, "MEAN_MOTION_DOT": 0.00049688, "MEAN_MOTION_DDOT": 0}, "tle": {"line1": "1 66616U 25270AE  25349.94601707  .00049688  00000+0  84718-3 0  9993", "line2": "2 66616  42.9989 173.8523 0001755 256.7172 103.3493 15.50586233  4954"}}, "geometry": {"type": "Point", "coordinates": [-53.08175871193014, 28.409182694008557]}}, {"type": "Feature", "properties": {"norad_id": 66617, "name": "STARLINK-35940", "group": "last-30-days", "lat": -3.109147582992349, "lon": 160.42140586664286, "alt_km": 449.1721069158457, "timestamp": "2025-12-17T21:39:44.491007+00:00", "meta": {"OBJECT_NAME": "STARLINK-35940", "OBJECT_ID": "2025-271A", "EPOCH": "2025-12-17T14:00:03.000384", "MEAN_MOTION": 15.39646887, "ECCENTRICITY": 0.00016579, "INCLINATION": 53.1584, "RA_OF_ASC_NODE": 164.2602, "ARG_OF_PERICENTER": 124.8162, "MEAN_ANOMALY": 261.0073, "EPHEMERIS_TYPE": 0, "CLASSIFICATION_TYPE": "U", "NORAD_CAT_ID": 66617, "ELEMENT_SET_NO": 999, "REV_AT_EPOCH": 502, "BSTAR": 9.866692e-06, "MEAN_MOTION_DOT": -5e-08, "MEAN_MOTION_DDOT": 0}, "tle": {"line1": "1 66617U 25271A   25351.58336806 -.00000005  00000+0  98667-5 0  9994", "line2": "2 66617  53.1584 164.2602 0001657 124.8162 261.0073 15.39646887  5021"}}, "geometry": {"type": "Point", "coordinates": [160.42140586664286, -3.109147582992349]}}, {"type": "Feature", "properties": {"norad_id": 66618, "name": "STARLINK-35970", "group": "last-30-days", "lat": 20.433189906778132, "lon": -33.784407397276425, "alt_km": 416.3863292256028, "timestamp": "2025-12-17T21:39:44.491017+00:00", "meta": {"OBJECT_NAME": "STARLINK-35970", "OBJECT_ID": "2025-271B", "EPOCH": "2025-12-17T13:15:34.291872", "MEAN_MOTION": 15.49313148, "ECCENTRICITY": 6.909e-05, "INCLINATION": 53.1597, "RA_OF_ASC_NODE": 164.1096, "ARG_OF_PERICENTER": 81.365, "MEAN_ANOMALY": 278.7438, "EPHEMERIS_TYPE": 0, "CLASSIFICATION_TYPE": "U", "NORAD_CAT_ID": 66618, "ELEMENT_SET_NO": 999, "REV_AT_EPOCH": 495, "BSTAR": 0.00090764084, "MEAN_MOTION_DOT": 0.00050364, "MEAN_MOTION_DDOT": 0}, "tle": {"line1": "1 66618U 25271B   25351.55248023  .00050364  00000+0  90764-3 0  9995", "line2": "2 66618  53.1597 164.1096 0000690  81.3650 278.7438 15.49313148  4950"}}, "geometry": {"type": "Point", "coordinates": [-33.784407397276425, 20.433189906778132]}}]}